<?xml version="1.0" encoding="UTF-8"?>
<gpx version="1.1" creator="open-autoroute" xmlns="http://www.topografix.com/GPX/1/1">
  <rte>
    <name>Annapolis to Norfolk (12 m)</name>
    <desc>open-autoroute: 133.1 nm, 12.0 m vessel, 1.5 m draft plus 1.0 m clearance</desc>
    <rtept lat="38.976145" lon="-76.480219"><name>Annapolis</name></rtept>
    <rtept lat="38.976684" lon="-76.480219"><name>WP002</name></rtept>
    <rtept lat="38.977223" lon="-76.479535"><name>WP003</name></rtept>
    <rtept lat="38.977223" lon="-76.476800"><name>WP004</name></rtept>
    <rtept lat="38.977762" lon="-76.476117"><name>WP005</name></rtept>
    <rtept lat="38.977762" lon="-76.467913"><name>WP006</name></rtept>
    <rtept lat="38.970755" lon="-76.460392"><name>WP007</name></rtept>
    <rtept lat="38.966443" lon="-76.459708"><name>WP008</name></rtept>
    <rtept lat="38.962670" lon="-76.456974"><name>WP009</name></rtept>
    <rtept lat="38.954585" lon="-76.446035"><name>WP010</name></rtept>
    <rtept lat="38.940572" lon="-76.433045"><name>WP011</name></rtept>
    <rtept lat="38.937877" lon="-76.426892"><name>WP012</name></rtept>
    <rtept lat="38.754621" lon="-76.421422"><name>WP013</name></rtept>
    <rtept lat="38.709346" lon="-76.406381"><name>WP014</name></rtept>
    <rtept lat="38.707730" lon="-76.405014"><name>WP015</name></rtept>
    <rtept lat="38.700723" lon="-76.400912"><name>WP016</name></rtept>
    <rtept lat="38.694255" lon="-76.397493"><name>WP017</name></rtept>
    <rtept lat="38.686170" lon="-76.394075"><name>WP018</name></rtept>
    <rtept lat="38.679163" lon="-76.392024"><name>WP019</name></rtept>
    <rtept lat="38.646824" lon="-76.359207"><name>WP020</name></rtept>
    <rtept lat="38.634427" lon="-76.343483"><name>WP021</name></rtept>
    <rtept lat="38.608556" lon="-76.345534"><name>WP022</name></rtept>
    <rtept lat="38.571905" lon="-76.374248"><name>WP023</name></rtept>
    <rtept lat="38.560047" lon="-76.379718"><name>WP024</name></rtept>
    <rtept lat="38.549267" lon="-76.384504"><name>WP025</name></rtept>
    <rtept lat="38.546034" lon="-76.385871"><name>WP026</name></rtept>
    <rtept lat="38.541183" lon="-76.387238"><name>WP027</name></rtept>
    <rtept lat="38.536332" lon="-76.387922"><name>WP028</name></rtept>
    <rtept lat="38.483511" lon="-76.378350"><name>WP029</name></rtept>
    <rtept lat="38.318042" lon="-76.357840"><name>WP030</name></rtept>
    <rtept lat="38.300795" lon="-76.356473"><name>WP031</name></rtept>
    <rtept lat="38.238272" lon="-76.382452"><name>WP032</name></rtept>
    <rtept lat="38.175750" lon="-76.329125"><name>WP033</name></rtept>
    <rtept lat="38.173055" lon="-76.327074"><name>WP034</name></rtept>
    <rtept lat="38.169821" lon="-76.324340"><name>WP035</name></rtept>
    <rtept lat="38.167126" lon="-76.322289"><name>WP036</name></rtept>
    <rtept lat="38.163892" lon="-76.319554"><name>WP037</name></rtept>
    <rtept lat="38.147722" lon="-76.308615"><name>WP038</name></rtept>
    <rtept lat="38.142332" lon="-76.303829"><name>WP039</name></rtept>
    <rtept lat="38.129936" lon="-76.301094"><name>WP040</name></rtept>
    <rtept lat="37.974169" lon="-76.283319"><name>WP041</name></rtept>
    <rtept lat="37.893860" lon="-76.184185"><name>WP042</name></rtept>
    <rtept lat="37.866371" lon="-76.183501"><name>WP043</name></rtept>
    <rtept lat="37.699824" lon="-76.172562"><name>WP044</name></rtept>
    <rtept lat="37.649699" lon="-76.173246"><name>WP045</name></rtept>
    <rtept lat="37.356490" lon="-76.158889"><name>WP046</name></rtept>
    <rtept lat="37.340859" lon="-76.161624"><name>WP047</name></rtept>
    <rtept lat="37.325229" lon="-76.164358"><name>WP048</name></rtept>
    <rtept lat="37.313371" lon="-76.166409"><name>WP049</name></rtept>
    <rtept lat="37.297740" lon="-76.169144"><name>WP050</name></rtept>
    <rtept lat="37.285883" lon="-76.171195"><name>WP051</name></rtept>
    <rtept lat="37.281571" lon="-76.171879"><name>WP052</name></rtept>
    <rtept lat="37.157604" lon="-76.173246"><name>WP053</name></rtept>
    <rtept lat="37.152753" lon="-76.172562"><name>WP054</name></rtept>
    <rtept lat="37.131732" lon="-76.197859"><name>WP055</name></rtept>
    <rtept lat="37.084841" lon="-76.197175"><name>WP056</name></rtept>
    <rtept lat="37.061125" lon="-76.199910"><name>WP057</name></rtept>
    <rtept lat="37.044956" lon="-76.204695"><name>WP058</name></rtept>
    <rtept lat="37.040105" lon="-76.206063"><name>WP059</name></rtept>
    <rtept lat="37.008304" lon="-76.240931"><name>WP060</name></rtept>
    <rtept lat="36.993213" lon="-76.240931"><name>WP061</name></rtept>
    <rtept lat="36.989979" lon="-76.245716"><name>WP062</name></rtept>
    <rtept lat="36.985128" lon="-76.262808"><name>WP063</name></rtept>
    <rtept lat="36.978121" lon="-76.271012"><name>WP064</name></rtept>
    <rtept lat="36.978660" lon="-76.286053"><name>WP065</name></rtept>
    <rtept lat="36.981894" lon="-76.290156"><name>WP066</name></rtept>
    <rtept lat="36.987823" lon="-76.292207"><name>WP067</name></rtept>
    <rtept lat="36.988362" lon="-76.297676"><name>WP068</name></rtept>
    <rtept lat="36.990518" lon="-76.304513"><name>WP069</name></rtept>
    <rtept lat="36.990518" lon="-76.309299"><name>WP070</name></rtept>
    <rtept lat="36.980277" lon="-76.322972"><name>WP071</name></rtept>
    <rtept lat="36.972192" lon="-76.330493"><name>WP072</name></rtept>
    <rtept lat="36.968419" lon="-76.332544"><name>WP073</name></rtept>
    <rtept lat="36.963030" lon="-76.331860"><name>WP074</name></rtept>
    <rtept lat="36.960874" lon="-76.329809"><name>WP075</name></rtept>
    <rtept lat="36.960874" lon="-76.328442"><name>WP076</name></rtept>
    <rtept lat="36.960335" lon="-76.327758"><name>WP077</name></rtept>
    <rtept lat="36.961413" lon="-76.327074"><name>WP078</name></rtept>
    <rtept lat="36.961413" lon="-76.326391"><name>Norfolk</name></rtept>
  </rte>
</gpx>
