<?xml version="1.0" encoding="UTF-8"?>
<gpx version="1.1" creator="open-autoroute" xmlns="http://www.topografix.com/GPX/1/1">
  <rte>
    <name>open-autoroute</name>
    <rtept lat="46.190709" lon="-123.829426"><name>WP001</name></rtept>
    <rtept lat="46.194482" lon="-123.829426"><name>WP002</name></rtept>
    <rtept lat="46.196908" lon="-123.824365"><name>WP003</name></rtept>
    <rtept lat="46.198794" lon="-123.817746"><name>WP004</name></rtept>
    <rtept lat="46.200411" lon="-123.814242"><name>WP005</name></rtept>
    <rtept lat="46.218198" lon="-123.762460"><name>WP006</name></rtept>
    <rtept lat="46.220084" lon="-123.755841"><name>WP007</name></rtept>
    <rtept lat="46.221971" lon="-123.749223"><name>WP008</name></rtept>
    <rtept lat="46.227899" lon="-123.734817"><name>WP009</name></rtept>
    <rtept lat="46.228977" lon="-123.732092"><name>WP010</name></rtept>
    <rtept lat="46.229786" lon="-123.730145"><name>WP011</name></rtept>
    <rtept lat="46.231133" lon="-123.727420"><name>WP012</name></rtept>
    <rtept lat="46.233289" lon="-123.723137"><name>WP013</name></rtept>
    <rtept lat="46.234906" lon="-123.720022"><name>WP014</name></rtept>
    <rtept lat="46.237332" lon="-123.715350"><name>WP015</name></rtept>
    <rtept lat="46.239218" lon="-123.711457"><name>WP016</name></rtept>
    <rtept lat="46.247572" lon="-123.691601"><name>WP017</name></rtept>
    <rtept lat="46.249728" lon="-123.685760"><name>WP018</name></rtept>
    <rtept lat="46.254040" lon="-123.669019"><name>WP019</name></rtept>
    <rtept lat="46.258083" lon="-123.656949"><name>WP020</name></rtept>
    <rtept lat="46.258891" lon="-123.653445"><name>WP021</name></rtept>
    <rtept lat="46.258891" lon="-123.641765"><name>WP022</name></rtept>
    <rtept lat="46.258891" lon="-123.633979"><name>WP023</name></rtept>
    <rtept lat="46.258352" lon="-123.628917"><name>WP024</name></rtept>
    <rtept lat="46.258083" lon="-123.625024"><name>WP025</name></rtept>
    <rtept lat="46.257813" lon="-123.621130"><name>WP026</name></rtept>
    <rtept lat="46.257544" lon="-123.617626"><name>WP027</name></rtept>
    <rtept lat="46.257274" lon="-123.613733"><name>WP028</name></rtept>
    <rtept lat="46.257005" lon="-123.610229"><name>WP029</name></rtept>
    <rtept lat="46.257274" lon="-123.600496"><name>WP030</name></rtept>
    <rtept lat="46.257005" lon="-123.594266"><name>WP031</name></rtept>
    <rtept lat="46.256466" lon="-123.586869"><name>WP032</name></rtept>
    <rtept lat="46.255388" lon="-123.581807"><name>WP033</name></rtept>
    <rtept lat="46.256196" lon="-123.567012"><name>WP034</name></rtept>
    <rtept lat="46.257544" lon="-123.549492"><name>WP035</name></rtept>
    <rtept lat="46.261317" lon="-123.536255"><name>WP036</name></rtept>
    <rtept lat="46.262934" lon="-123.530804"><name>WP037</name></rtept>
    <rtept lat="46.264551" lon="-123.524575"><name>WP038</name></rtept>
    <rtept lat="46.265898" lon="-123.517177"><name>WP039</name></rtept>
    <rtept lat="46.269671" lon="-123.505886"><name>WP040</name></rtept>
    <rtept lat="46.271288" lon="-123.497710"><name>WP041</name></rtept>
    <rtept lat="46.271557" lon="-123.485252"><name>WP042</name></rtept>
    <rtept lat="46.271288" lon="-123.482916"><name>WP043</name></rtept>
    <rtept lat="46.271018" lon="-123.480190"><name>WP044</name></rtept>
    <rtept lat="46.270749" lon="-123.477854"><name>WP045</name></rtept>
    <rtept lat="46.270479" lon="-123.476297"><name>WP046</name></rtept>
    <rtept lat="46.269671" lon="-123.473182"><name>WP047</name></rtept>
    <rtept lat="46.269132" lon="-123.470846"><name>WP048</name></rtept>
    <rtept lat="46.268593" lon="-123.469678"><name>WP049</name></rtept>
    <rtept lat="46.264551" lon="-123.461891"><name>WP050</name></rtept>
    <rtept lat="46.262664" lon="-123.458387"><name>WP051</name></rtept>
    <rtept lat="46.261586" lon="-123.456830"><name>WP052</name></rtept>
    <rtept lat="46.258622" lon="-123.453326"><name>WP053</name></rtept>
    <rtept lat="46.255927" lon="-123.450211"><name>WP054</name></rtept>
    <rtept lat="46.249998" lon="-123.443203"><name>WP055</name></rtept>
    <rtept lat="46.241374" lon="-123.433080"><name>WP056</name></rtept>
    <rtept lat="46.237062" lon="-123.430355"><name>WP057</name></rtept>
    <rtept lat="46.235715" lon="-123.429576"><name>WP058</name></rtept>
    <rtept lat="46.226821" lon="-123.426851"><name>WP059</name></rtept>
    <rtept lat="46.222240" lon="-123.425683"><name>WP060</name></rtept>
    <rtept lat="46.217120" lon="-123.425683"><name>WP061</name></rtept>
    <rtept lat="46.213886" lon="-123.415560"><name>WP062</name></rtept>
    <rtept lat="46.211191" lon="-123.412056"><name>WP063</name></rtept>
    <rtept lat="46.204184" lon="-123.392589"><name>WP064</name></rtept>
    <rtept lat="46.199872" lon="-123.387528"><name>WP065</name></rtept>
    <rtept lat="46.199872" lon="-123.385192"><name>WP066</name></rtept>
  </rte>
</gpx>
