<?xml version="1.0" encoding="UTF-8"?>
<gpx version="1.1" creator="open-autoroute" xmlns="http://www.topografix.com/GPX/1/1">
  <rte>
    <name>open-autoroute</name>
    <rtept lat="46.191223" lon="-123.829714"><name>WP001</name></rtept>
    <rtept lat="46.194996" lon="-123.828940"><name>WP002</name></rtept>
    <rtept lat="46.197151" lon="-123.821975"><name>WP003</name></rtept>
    <rtept lat="46.201463" lon="-123.811141"><name>WP004</name></rtept>
    <rtept lat="46.202002" lon="-123.810367"><name>WP005</name></rtept>
    <rtept lat="46.217633" lon="-123.764710"><name>WP006</name></rtept>
    <rtept lat="46.219250" lon="-123.759293"><name>WP007</name></rtept>
    <rtept lat="46.221406" lon="-123.751554"><name>WP008</name></rtept>
    <rtept lat="46.227874" lon="-123.734529"><name>WP009</name></rtept>
    <rtept lat="46.230030" lon="-123.729112"><name>WP010</name></rtept>
    <rtept lat="46.234881" lon="-123.719826"><name>WP011</name></rtept>
    <rtept lat="46.239192" lon="-123.711313"><name>WP012</name></rtept>
    <rtept lat="46.242426" lon="-123.703575"><name>WP013</name></rtept>
    <rtept lat="46.244582" lon="-123.698158"><name>WP014</name></rtept>
    <rtept lat="46.247277" lon="-123.692741"><name>WP015</name></rtept>
    <rtept lat="46.249433" lon="-123.687324"><name>WP016</name></rtept>
    <rtept lat="46.251589" lon="-123.681907"><name>WP017</name></rtept>
    <rtept lat="46.253745" lon="-123.670299"><name>WP018</name></rtept>
    <rtept lat="46.258057" lon="-123.656369"><name>WP019</name></rtept>
    <rtept lat="46.259135" lon="-123.641666"><name>WP020</name></rtept>
    <rtept lat="46.259135" lon="-123.634701"><name>WP021</name></rtept>
    <rtept lat="46.258596" lon="-123.628510"><name>WP022</name></rtept>
    <rtept lat="46.258057" lon="-123.620772"><name>WP023</name></rtept>
    <rtept lat="46.257518" lon="-123.613807"><name>WP024</name></rtept>
    <rtept lat="46.256440" lon="-123.589817"><name>WP025</name></rtept>
    <rtept lat="46.255362" lon="-123.581305"><name>WP026</name></rtept>
    <rtept lat="46.255901" lon="-123.574340"><name>WP027</name></rtept>
    <rtept lat="46.256440" lon="-123.567376"><name>WP028</name></rtept>
    <rtept lat="46.256979" lon="-123.560411"><name>WP029</name></rtept>
    <rtept lat="46.257518" lon="-123.553446"><name>WP030</name></rtept>
    <rtept lat="46.259674" lon="-123.541838"><name>WP031</name></rtept>
    <rtept lat="46.260752" lon="-123.537195"><name>WP032</name></rtept>
    <rtept lat="46.262908" lon="-123.531004"><name>WP033</name></rtept>
    <rtept lat="46.264525" lon="-123.524039"><name>WP034</name></rtept>
    <rtept lat="46.266681" lon="-123.514753"><name>WP035</name></rtept>
    <rtept lat="46.270454" lon="-123.502371"><name>WP036</name></rtept>
    <rtept lat="46.271532" lon="-123.494633"><name>WP037</name></rtept>
    <rtept lat="46.271532" lon="-123.483025"><name>WP038</name></rtept>
    <rtept lat="46.270993" lon="-123.477608"><name>WP039</name></rtept>
    <rtept lat="46.269915" lon="-123.472965"><name>WP040</name></rtept>
    <rtept lat="46.267759" lon="-123.467548"><name>WP041</name></rtept>
    <rtept lat="46.262369" lon="-123.457488"><name>WP042</name></rtept>
    <rtept lat="46.259135" lon="-123.453618"><name>WP043</name></rtept>
    <rtept lat="46.255901" lon="-123.449749"><name>WP044</name></rtept>
    <rtept lat="46.249972" lon="-123.442784"><name>WP045</name></rtept>
    <rtept lat="46.246199" lon="-123.438141"><name>WP046</name></rtept>
    <rtept lat="46.241348" lon="-123.432724"><name>WP047</name></rtept>
    <rtept lat="46.235959" lon="-123.429629"><name>WP048</name></rtept>
    <rtept lat="46.232186" lon="-123.428081"><name>WP049</name></rtept>
    <rtept lat="46.223562" lon="-123.425759"><name>WP050</name></rtept>
    <rtept lat="46.209548" lon="-123.425759"><name>WP051</name></rtept>
    <rtept lat="46.202541" lon="-123.428081"><name>WP052</name></rtept>
    <rtept lat="46.202002" lon="-123.428855"><name>WP053</name></rtept>
    <rtept lat="46.199307" lon="-123.428855"><name>WP054</name></rtept>
    <rtept lat="46.185294" lon="-123.430403"><name>WP055</name></rtept>
    <rtept lat="46.177748" lon="-123.426533"><name>WP056</name></rtept>
    <rtept lat="46.173975" lon="-123.421890"><name>WP057</name></rtept>
    <rtept lat="46.170741" lon="-123.415699"><name>WP058</name></rtept>
    <rtept lat="46.164273" lon="-123.407961"><name>WP059</name></rtept>
    <rtept lat="46.151877" lon="-123.390936"><name>WP060</name></rtept>
    <rtept lat="46.150260" lon="-123.387066"><name>WP061</name></rtept>
    <rtept lat="46.149182" lon="-123.383197"><name>WP062</name></rtept>
    <rtept lat="46.147565" lon="-123.375459"><name>WP063</name></rtept>
    <rtept lat="46.146487" lon="-123.368494"><name>WP064</name></rtept>
    <rtept lat="46.143792" lon="-123.353017"><name>WP065</name></rtept>
    <rtept lat="46.143253" lon="-123.346826"><name>WP066</name></rtept>
    <rtept lat="46.142714" lon="-123.340635"><name>WP067</name></rtept>
    <rtept lat="46.142714" lon="-123.313550"><name>WP068</name></rtept>
    <rtept lat="46.143253" lon="-123.307359"><name>WP069</name></rtept>
    <rtept lat="46.143792" lon="-123.301942"><name>WP070</name></rtept>
    <rtept lat="46.144331" lon="-123.297299"><name>WP071</name></rtept>
    <rtept lat="46.144870" lon="-123.294203"><name>WP072</name></rtept>
    <rtept lat="46.145409" lon="-123.291108"><name>WP073</name></rtept>
    <rtept lat="46.146487" lon="-123.285691"><name>WP074</name></rtept>
    <rtept lat="46.147026" lon="-123.277952"><name>WP075</name></rtept>
    <rtept lat="46.152416" lon="-123.260154"><name>WP076</name></rtept>
    <rtept lat="46.159422" lon="-123.245450"><name>WP077</name></rtept>
    <rtept lat="46.162656" lon="-123.240033"><name>WP078</name></rtept>
    <rtept lat="46.166429" lon="-123.232295"><name>WP079</name></rtept>
    <rtept lat="46.170202" lon="-123.220687"><name>WP080</name></rtept>
    <rtept lat="46.180443" lon="-123.192828"><name>WP081</name></rtept>
    <rtept lat="46.184216" lon="-123.181994"><name>WP082</name></rtept>
    <rtept lat="46.187989" lon="-123.168064"><name>WP083</name></rtept>
    <rtept lat="46.189606" lon="-123.159552"><name>WP084</name></rtept>
    <rtept lat="46.187989" lon="-123.144075"><name>WP085</name></rtept>
    <rtept lat="46.187450" lon="-123.137110"><name>WP086</name></rtept>
    <rtept lat="46.186911" lon="-123.130145"><name>WP087</name></rtept>
    <rtept lat="46.186372" lon="-123.126276"><name>WP088</name></rtept>
    <rtept lat="46.185294" lon="-123.120859"><name>WP089</name></rtept>
    <rtept lat="46.180443" lon="-123.111573"><name>WP090</name></rtept>
    <rtept lat="46.174514" lon="-123.100739"><name>WP091</name></rtept>
    <rtept lat="46.168585" lon="-123.089905"><name>WP092</name></rtept>
    <rtept lat="46.166429" lon="-123.086035"><name>WP093</name></rtept>
    <rtept lat="46.162656" lon="-123.077523"><name>WP094</name></rtept>
    <rtept lat="46.157805" lon="-123.064367"><name>WP095</name></rtept>
    <rtept lat="46.155111" lon="-123.055081"><name>WP096</name></rtept>
    <rtept lat="46.150799" lon="-123.046569"><name>WP097</name></rtept>
    <rtept lat="46.148104" lon="-123.040378"><name>WP098</name></rtept>
    <rtept lat="46.141097" lon="-123.029544"><name>WP099</name></rtept>
    <rtept lat="46.137324" lon="-123.017162"><name>WP100</name></rtept>
    <rtept lat="46.133551" lon="-123.006328"><name>WP101</name></rtept>
    <rtept lat="46.131395" lon="-123.001685"><name>WP102</name></rtept>
    <rtept lat="46.130856" lon="-122.999363"><name>WP103</name></rtept>
    <rtept lat="46.127622" lon="-122.996268"><name>WP104</name></rtept>
    <rtept lat="46.124927" lon="-122.993172"><name>WP105</name></rtept>
    <rtept lat="46.113609" lon="-122.977695"><name>WP106</name></rtept>
    <rtept lat="46.110375" lon="-122.972278"><name>WP107</name></rtept>
    <rtept lat="46.103907" lon="-122.959896"><name>WP108</name></rtept>
    <rtept lat="46.100673" lon="-122.952158"><name>WP109</name></rtept>
    <rtept lat="46.094744" lon="-122.933585"><name>WP110</name></rtept>
    <rtept lat="46.091510" lon="-122.925073"><name>WP111</name></rtept>
    <rtept lat="46.088815" lon="-122.916560"><name>WP112</name></rtept>
    <rtept lat="46.087198" lon="-122.911917"><name>WP113</name></rtept>
    <rtept lat="46.083964" lon="-122.905726"><name>WP114</name></rtept>
    <rtept lat="46.082886" lon="-122.903405"><name>WP115</name></rtept>
    <rtept lat="46.079652" lon="-122.898761"><name>WP116</name></rtept>
    <rtept lat="46.074801" lon="-122.893344"><name>WP117</name></rtept>
    <rtept lat="46.071568" lon="-122.890249"><name>WP118</name></rtept>
    <rtept lat="46.066717" lon="-122.887154"><name>WP119</name></rtept>
    <rtept lat="46.064022" lon="-122.885606"><name>WP120</name></rtept>
    <rtept lat="46.056476" lon="-122.882510"><name>WP121</name></rtept>
    <rtept lat="46.046235" lon="-122.880189"><name>WP122</name></rtept>
    <rtept lat="46.040845" lon="-122.880189"><name>WP123</name></rtept>
    <rtept lat="46.034916" lon="-122.878641"><name>WP124</name></rtept>
    <rtept lat="46.030605" lon="-122.876320"><name>WP125</name></rtept>
    <rtept lat="46.025215" lon="-122.873224"><name>WP126</name></rtept>
    <rtept lat="46.023059" lon="-122.868581"><name>WP127</name></rtept>
    <rtept lat="46.019286" lon="-122.863164"><name>WP128</name></rtept>
    <rtept lat="46.014974" lon="-122.857747"><name>WP129</name></rtept>
    <rtept lat="46.011201" lon="-122.854652"><name>WP130</name></rtept>
    <rtept lat="46.001499" lon="-122.850008"><name>WP131</name></rtept>
    <rtept lat="45.994492" lon="-122.846913"><name>WP132</name></rtept>
    <rtept lat="45.984791" lon="-122.843044"><name>WP133</name></rtept>
    <rtept lat="45.978862" lon="-122.835305"><name>WP134</name></rtept>
    <rtept lat="45.974011" lon="-122.831436"><name>WP135</name></rtept>
    <rtept lat="45.970238" lon="-122.826019"><name>WP136</name></rtept>
    <rtept lat="45.963770" lon="-122.817506"><name>WP137</name></rtept>
    <rtept lat="45.961075" lon="-122.814411"><name>WP138</name></rtept>
    <rtept lat="45.957302" lon="-122.811315"><name>WP139</name></rtept>
    <rtept lat="45.949218" lon="-122.807446"><name>WP140</name></rtept>
    <rtept lat="45.941672" lon="-122.805898"><name>WP141</name></rtept>
    <rtept lat="45.928736" lon="-122.805898"><name>WP142</name></rtept>
    <rtept lat="45.925502" lon="-122.806672"><name>WP143</name></rtept>
    <rtept lat="45.922807" lon="-122.807446"><name>WP144</name></rtept>
    <rtept lat="45.917956" lon="-122.808994"><name>WP145</name></rtept>
    <rtept lat="45.905560" lon="-122.808220"><name>WP146</name></rtept>
    <rtept lat="45.900170" lon="-122.805898"><name>WP147</name></rtept>
    <rtept lat="45.897475" lon="-122.805125"><name>WP148</name></rtept>
    <rtept lat="45.894780" lon="-122.804351"><name>WP149</name></rtept>
    <rtept lat="45.884539" lon="-122.799708"><name>WP150</name></rtept>
    <rtept lat="45.882383" lon="-122.798934"><name>WP151</name></rtept>
    <rtept lat="45.881305" lon="-122.796612"><name>WP152</name></rtept>
    <rtept lat="45.873759" lon="-122.790421"><name>WP153</name></rtept>
    <rtept lat="45.869987" lon="-122.788100"><name>WP154</name></rtept>
    <rtept lat="45.865136" lon="-122.785778"><name>WP155</name></rtept>
    <rtept lat="45.862441" lon="-122.785004"><name>WP156</name></rtept>
    <rtept lat="45.847888" lon="-122.785004"><name>WP157</name></rtept>
    <rtept lat="45.843576" lon="-122.786552"><name>WP158</name></rtept>
    <rtept lat="45.827407" lon="-122.794291"><name>WP159</name></rtept>
    <rtept lat="45.819861" lon="-122.795838"><name>WP160</name></rtept>
    <rtept lat="45.816088" lon="-122.795838"><name>WP161</name></rtept>
    <rtept lat="45.813393" lon="-122.795064"><name>WP162</name></rtept>
    <rtept lat="45.810698" lon="-122.794291"><name>WP163</name></rtept>
    <rtept lat="45.803691" lon="-122.790421"><name>WP164</name></rtept>
    <rtept lat="45.793989" lon="-122.782683"><name>WP165</name></rtept>
    <rtept lat="45.790217" lon="-122.779587"><name>WP166</name></rtept>
    <rtept lat="45.785905" lon="-122.775718"><name>WP167</name></rtept>
    <rtept lat="45.778898" lon="-122.769527"><name>WP168</name></rtept>
    <rtept lat="45.773508" lon="-122.766432"><name>WP169</name></rtept>
    <rtept lat="45.767040" lon="-122.763336"><name>WP170</name></rtept>
    <rtept lat="45.761111" lon="-122.761788"><name>WP171</name></rtept>
    <rtept lat="45.747637" lon="-122.761015"><name>WP172</name></rtept>
    <rtept lat="45.734162" lon="-122.761015"><name>WP173</name></rtept>
    <rtept lat="45.723382" lon="-122.763336"><name>WP174</name></rtept>
    <rtept lat="45.706135" lon="-122.769527"><name>WP175</name></rtept>
    <rtept lat="45.699128" lon="-122.771849"><name>WP176</name></rtept>
    <rtept lat="45.692660" lon="-122.774170"><name>WP177</name></rtept>
    <rtept lat="45.679724" lon="-122.774170"><name>WP178</name></rtept>
    <rtept lat="45.675951" lon="-122.773396"><name>WP179</name></rtept>
    <rtept lat="45.672717" lon="-122.771849"><name>WP180</name></rtept>
    <rtept lat="45.669483" lon="-122.770301"><name>WP181</name></rtept>
    <rtept lat="45.666250" lon="-122.768753"><name>WP182</name></rtept>
    <rtept lat="45.663016" lon="-122.767205"><name>WP183</name></rtept>
    <rtept lat="45.658704" lon="-122.764110"><name>WP184</name></rtept>
    <rtept lat="45.655470" lon="-122.763336"><name>WP185</name></rtept>
    <rtept lat="45.650619" lon="-122.767205"><name>WP186</name></rtept>
    <rtept lat="45.646846" lon="-122.770301"><name>WP187</name></rtept>
    <rtept lat="45.643612" lon="-122.774170"><name>WP188</name></rtept>
    <rtept lat="45.640378" lon="-122.778813"><name>WP189</name></rtept>
    <rtept lat="45.633910" lon="-122.788100"><name>WP190</name></rtept>
    <rtept lat="45.629059" lon="-122.790421"><name>WP191</name></rtept>
    <rtept lat="45.624209" lon="-122.791195"><name>WP192</name></rtept>
    <rtept lat="45.615585" lon="-122.789647"><name>WP193</name></rtept>
    <rtept lat="45.605883" lon="-122.783457"><name>WP194</name></rtept>
    <rtept lat="45.595103" lon="-122.775718"><name>WP195</name></rtept>
    <rtept lat="45.585941" lon="-122.765658"><name>WP196</name></rtept>
    <rtept lat="45.581629" lon="-122.757919"><name>WP197</name></rtept>
    <rtept lat="45.576239" lon="-122.746311"><name>WP198</name></rtept>
    <rtept lat="45.570310" lon="-122.736251"><name>WP199</name></rtept>
    <rtept lat="45.565998" lon="-122.730834"><name>WP200</name></rtept>
    <rtept lat="45.561147" lon="-122.723869"><name>WP201</name></rtept>
    <rtept lat="45.556835" lon="-122.714583"><name>WP202</name></rtept>
    <rtept lat="45.554679" lon="-122.709166"><name>WP203</name></rtept>
    <rtept lat="45.550906" lon="-122.699106"><name>WP204</name></rtept>
    <rtept lat="45.543361" lon="-122.689820"><name>WP205</name></rtept>
    <rtept lat="45.536893" lon="-122.681307"><name>WP206</name></rtept>
    <rtept lat="45.532042" lon="-122.674342"><name>WP207</name></rtept>
  </rte>
</gpx>
