<?xml version="1.0" encoding="UTF-8"?>
<gpx version="1.1" creator="open-autoroute" xmlns="http://www.topografix.com/GPX/1/1">
  <rte>
    <name>open-autoroute</name>
    <rtept lat="29.336905" lon="-94.741735"><name>WP001</name></rtept>
    <rtept lat="29.340678" lon="-94.743593"><name>WP002</name></rtept>
    <rtept lat="29.345798" lon="-94.779213"><name>WP003</name></rtept>
    <rtept lat="29.348224" lon="-94.783549"><name>WP004</name></rtept>
    <rtept lat="29.353613" lon="-94.793770"><name>WP005</name></rtept>
    <rtept lat="29.356039" lon="-94.792532"><name>WP006</name></rtept>
    <rtept lat="29.360351" lon="-94.792532"><name>WP007</name></rtept>
    <rtept lat="29.363854" lon="-94.788505"><name>WP008</name></rtept>
    <rtept lat="29.371670" lon="-94.793461"><name>WP009</name></rtept>
    <rtept lat="29.372208" lon="-94.796248"><name>WP010</name></rtept>
    <rtept lat="29.378946" lon="-94.805850"><name>WP011</name></rtept>
    <rtept lat="29.384066" lon="-94.808328"><name>WP012</name></rtept>
    <rtept lat="29.387031" lon="-94.810186"><name>WP013</name></rtept>
    <rtept lat="29.387300" lon="-94.810806"><name>WP014</name></rtept>
    <rtept lat="29.396732" lon="-94.815762"><name>WP015</name></rtept>
    <rtept lat="29.487013" lon="-94.860983"><name>WP016</name></rtept>
    <rtept lat="29.497792" lon="-94.868107"><name>WP017</name></rtept>
    <rtept lat="29.507225" lon="-94.875231"><name>WP018</name></rtept>
    <rtept lat="29.516657" lon="-94.882045"><name>WP019</name></rtept>
    <rtept lat="29.542259" lon="-94.901868"><name>WP020</name></rtept>
    <rtept lat="29.546032" lon="-94.905585"><name>WP021</name></rtept>
    <rtept lat="29.552230" lon="-94.910231"><name>WP022</name></rtept>
    <rtept lat="29.568130" lon="-94.922620"><name>WP023</name></rtept>
    <rtept lat="29.569747" lon="-94.925098"><name>WP024</name></rtept>
    <rtept lat="29.566244" lon="-94.929125"><name>WP025</name></rtept>
    <rtept lat="29.559506" lon="-94.936558"><name>WP026</name></rtept>
    <rtept lat="29.567052" lon="-94.944612"><name>WP027</name></rtept>
    <rtept lat="29.570825" lon="-94.945231"><name>WP028</name></rtept>
    <rtept lat="29.579179" lon="-94.954833"><name>WP029</name></rtept>
    <rtept lat="29.585917" lon="-94.957001"><name>WP030</name></rtept>
    <rtept lat="29.588881" lon="-94.959169"><name>WP031</name></rtept>
    <rtept lat="29.594541" lon="-94.953284"><name>WP032</name></rtept>
    <rtept lat="29.594541" lon="-94.953904"><name>WP033</name></rtept>
    <rtept lat="29.595349" lon="-94.953904"><name>WP034</name></rtept>
    <rtept lat="29.595349" lon="-94.954523"><name>WP035</name></rtept>
    <rtept lat="29.596157" lon="-94.954523"><name>WP036</name></rtept>
    <rtept lat="29.596157" lon="-94.955143"><name>WP037</name></rtept>
    <rtept lat="29.601008" lon="-94.950187"><name>WP038</name></rtept>
    <rtept lat="29.605320" lon="-94.951736"><name>WP039</name></rtept>
    <rtept lat="29.613944" lon="-94.956691"><name>WP040</name></rtept>
    <rtept lat="29.618525" lon="-94.956691"><name>WP041</name></rtept>
    <rtept lat="29.634695" lon="-94.963196"><name>WP042</name></rtept>
    <rtept lat="29.673233" lon="-94.977134"><name>WP043</name></rtept>
    <rtept lat="29.679161" lon="-94.979302"><name>WP044</name></rtept>
    <rtept lat="29.686438" lon="-94.982709"><name>WP045</name></rtept>
    <rtept lat="29.691828" lon="-94.988904"><name>WP046</name></rtept>
    <rtept lat="29.698834" lon="-94.997886"><name>WP047</name></rtept>
    <rtept lat="29.700990" lon="-95.004081"><name>WP048</name></rtept>
    <rtept lat="29.702068" lon="-95.011824"><name>WP049</name></rtept>
    <rtept lat="29.703146" lon="-95.016160"><name>WP050</name></rtept>
    <rtept lat="29.703416" lon="-95.016470"><name>WP051</name></rtept>
    <rtept lat="29.707189" lon="-95.019258"><name>WP052</name></rtept>
    <rtept lat="29.712309" lon="-95.020806"><name>WP053</name></rtept>
    <rtept lat="29.723089" lon="-95.020497"><name>WP054</name></rtept>
    <rtept lat="29.722819" lon="-95.020806"><name>WP055</name></rtept>
    <rtept lat="29.723089" lon="-95.020806"><name>WP056</name></rtept>
    <rtept lat="29.722819" lon="-95.021116"><name>WP057</name></rtept>
    <rtept lat="29.723358" lon="-95.021116"><name>WP058</name></rtept>
    <rtept lat="29.723089" lon="-95.021426"><name>WP059</name></rtept>
    <rtept lat="29.724975" lon="-95.021736"><name>WP060</name></rtept>
    <rtept lat="29.727131" lon="-95.024833"><name>WP061</name></rtept>
    <rtept lat="29.729557" lon="-95.025762"><name>WP062</name></rtept>
    <rtept lat="29.730904" lon="-95.034125"><name>WP063</name></rtept>
    <rtept lat="29.731713" lon="-95.044037"><name>WP064</name></rtept>
    <rtept lat="29.732791" lon="-95.049302"><name>WP065</name></rtept>
    <rtept lat="29.735755" lon="-95.053638"><name>WP066</name></rtept>
    <rtept lat="29.738989" lon="-95.057665"><name>WP067</name></rtept>
    <rtept lat="29.747882" lon="-95.063550"><name>WP068</name></rtept>
    <rtept lat="29.751925" lon="-95.065099"><name>WP069</name></rtept>
    <rtept lat="29.756237" lon="-95.067577"><name>WP070</name></rtept>
    <rtept lat="29.760009" lon="-95.072223"><name>WP071</name></rtept>
    <rtept lat="29.763782" lon="-95.080585"><name>WP072</name></rtept>
    <rtept lat="29.763243" lon="-95.088019"><name>WP073</name></rtept>
    <rtept lat="29.762974" lon="-95.088019"><name>WP074</name></rtept>
    <rtept lat="29.762974" lon="-95.088639"><name>WP075</name></rtept>
    <rtept lat="29.750577" lon="-95.097001"><name>WP076</name></rtept>
    <rtept lat="29.741684" lon="-95.107223"><name>WP077</name></rtept>
    <rtept lat="29.740606" lon="-95.110320"><name>WP078</name></rtept>
    <rtept lat="29.738450" lon="-95.117754"><name>WP079</name></rtept>
    <rtept lat="29.734408" lon="-95.125187"><name>WP080</name></rtept>
    <rtept lat="29.734138" lon="-95.131692"><name>WP081</name></rtept>
    <rtept lat="29.735486" lon="-95.140674"><name>WP082</name></rtept>
    <rtept lat="29.736294" lon="-95.150586"><name>WP083</name></rtept>
    <rtept lat="29.738180" lon="-95.155541"><name>WP084</name></rtept>
    <rtept lat="29.742492" lon="-95.160807"><name>WP085</name></rtept>
    <rtept lat="29.744379" lon="-95.163594"><name>WP086</name></rtept>
    <rtept lat="29.746804" lon="-95.168550"><name>WP087</name></rtept>
    <rtept lat="29.746535" lon="-95.177842"><name>WP088</name></rtept>
    <rtept lat="29.745726" lon="-95.180630"><name>WP089</name></rtept>
    <rtept lat="29.745457" lon="-95.187754"><name>WP090</name></rtept>
    <rtept lat="29.739258" lon="-95.202621"><name>WP091</name></rtept>
    <rtept lat="29.732791" lon="-95.206957"><name>WP092</name></rtept>
    <rtept lat="29.728479" lon="-95.209435"><name>WP093</name></rtept>
    <rtept lat="29.726053" lon="-95.212533"><name>WP094</name></rtept>
    <rtept lat="29.724706" lon="-95.216559"><name>WP095</name></rtept>
    <rtept lat="29.724706" lon="-95.219966"><name>WP096</name></rtept>
    <rtept lat="29.725514" lon="-95.227090"><name>WP097</name></rtept>
    <rtept lat="29.724167" lon="-95.232046"><name>WP098</name></rtept>
    <rtept lat="29.721202" lon="-95.237002"><name>WP099</name></rtept>
    <rtept lat="29.719316" lon="-95.239170"><name>WP100</name></rtept>
    <rtept lat="29.719585" lon="-95.245365"><name>WP101</name></rtept>
    <rtept lat="29.721202" lon="-95.248462"><name>WP102</name></rtept>
    <rtept lat="29.725784" lon="-95.253727"><name>WP103</name></rtept>
    <rtept lat="29.726862" lon="-95.257135"><name>WP104</name></rtept>
    <rtept lat="29.724975" lon="-95.267666"><name>WP105</name></rtept>
    <rtept lat="29.725784" lon="-95.272621"><name>WP106</name></rtept>
    <rtept lat="29.728479" lon="-95.275719"><name>WP107</name></rtept>
    <rtept lat="29.734677" lon="-95.277267"><name>WP108</name></rtept>
    <rtept lat="29.734677" lon="-95.276958"><name>WP109</name></rtept>
  </rte>
</gpx>
