<?xml version="1.0" encoding="UTF-8"?>
<gpx version="1.1" creator="open-autoroute" xmlns="http://www.topografix.com/GPX/1/1">
  <rte>
    <name>Los Angeles approach (offshore) to Long Beach (120 m)</name>
    <desc>open-autoroute: 17.1 nm, 120.0 m vessel, 1.5 m draft plus 1.0 m clearance</desc>
    <rtept lat="33.649941" lon="-118.400142"><name>Los Angeles approach (offshore)</name></rtept>
    <rtept lat="33.665841" lon="-118.380710"><name>WP002</name></rtept>
    <rtept lat="33.653444" lon="-118.271238"><name>WP003</name></rtept>
    <rtept lat="33.654522" lon="-118.206138"><name>WP004</name></rtept>
    <rtept lat="33.673656" lon="-118.183790"><name>WP005</name></rtept>
    <rtept lat="33.726477" lon="-118.184114"><name>WP006</name></rtept>
    <rtept lat="33.730789" lon="-118.199012"><name>WP007</name></rtept>
    <rtept lat="33.733484" lon="-118.204194"><name>WP008</name></rtept>
    <rtept lat="33.733484" lon="-118.204518"><name>WP009</name></rtept>
    <rtept lat="33.723782" lon="-118.216178"><name>WP010</name></rtept>
    <rtept lat="33.725129" lon="-118.220065"><name>Long Beach</name></rtept>
  </rte>
</gpx>
