<?xml version="1.0" encoding="UTF-8"?>
<gpx version="1.1" creator="open-autoroute" xmlns="http://www.topografix.com/GPX/1/1">
  <rte>
    <name>open-autoroute</name>
    <rtept lat="41.890189" lon="-87.608433"><name>WP001</name></rtept>
    <rtept lat="41.890728" lon="-87.601127"><name>WP002</name></rtept>
    <rtept lat="41.890189" lon="-87.594552"><name>WP003</name></rtept>
    <rtept lat="41.888572" lon="-87.592360"><name>WP004</name></rtept>
    <rtept lat="41.889111" lon="-87.584324"><name>WP005</name></rtept>
    <rtept lat="41.903124" lon="-87.585054"><name>WP006</name></rtept>
    <rtept lat="41.995291" lon="-87.598935"><name>WP007</name></rtept>
    <rtept lat="42.083685" lon="-87.666880"><name>WP008</name></rtept>
    <rtept lat="42.114407" lon="-87.691719"><name>WP009</name></rtept>
    <rtept lat="42.220049" lon="-87.725326"><name>WP010</name></rtept>
    <rtept lat="42.735320" lon="-87.734093"><name>WP011</name></rtept>
    <rtept lat="42.794069" lon="-87.749435"><name>WP012</name></rtept>
    <rtept lat="42.994572" lon="-87.840028"><name>WP013</name></rtept>
    <rtept lat="43.026373" lon="-87.881671"><name>WP014</name></rtept>
    <rtept lat="43.026373" lon="-87.890438"><name>WP015</name></rtept>
    <rtept lat="43.026912" lon="-87.889707"><name>WP016</name></rtept>
    <rtept lat="43.027990" lon="-87.889707"><name>WP017</name></rtept>
    <rtept lat="43.030146" lon="-87.888977"><name>WP018</name></rtept>
    <rtept lat="43.030146" lon="-87.889707"><name>WP019</name></rtept>
  </rte>
</gpx>
