<?xml version="1.0" encoding="UTF-8"?>
<gpx version="1.1" creator="open-autoroute" xmlns="http://www.topografix.com/GPX/1/1">
  <rte>
    <name>open-autoroute</name>
    <rtept lat="45.832988" lon="-122.794881"><name>WP001</name></rtept>
    <rtept lat="45.831910" lon="-122.792308"><name>WP002</name></rtept>
    <rtept lat="45.828137" lon="-122.793594"><name>WP003</name></rtept>
    <rtept lat="45.823106" lon="-122.795139"><name>WP004</name></rtept>
    <rtept lat="45.815920" lon="-122.795396"><name>WP005</name></rtept>
    <rtept lat="45.815022" lon="-122.795139"><name>WP006</name></rtept>
    <rtept lat="45.814303" lon="-122.794881"><name>WP007</name></rtept>
    <rtept lat="45.813405" lon="-122.794624"><name>WP008</name></rtept>
    <rtept lat="45.812506" lon="-122.794367"><name>WP009</name></rtept>
    <rtept lat="45.811788" lon="-122.794109"><name>WP010</name></rtept>
    <rtept lat="45.810889" lon="-122.793852"><name>WP011</name></rtept>
    <rtept lat="45.808015" lon="-122.792822"><name>WP012</name></rtept>
    <rtept lat="45.799391" lon="-122.787417"><name>WP013</name></rtept>
    <rtept lat="45.786635" lon="-122.776865"><name>WP014</name></rtept>
    <rtept lat="45.779808" lon="-122.770688"><name>WP015</name></rtept>
    <rtept lat="45.776754" lon="-122.768629"><name>WP016</name></rtept>
    <rtept lat="45.774777" lon="-122.767342"><name>WP017</name></rtept>
    <rtept lat="45.773520" lon="-122.766570"><name>WP018</name></rtept>
    <rtept lat="45.767231" lon="-122.763739"><name>WP019</name></rtept>
    <rtept lat="45.763458" lon="-122.762709"><name>WP020</name></rtept>
    <rtept lat="45.761842" lon="-122.762452"><name>WP021</name></rtept>
    <rtept lat="45.755014" lon="-122.761937"><name>WP022</name></rtept>
    <rtept lat="45.750343" lon="-122.761680"><name>WP023</name></rtept>
    <rtept lat="45.745852" lon="-122.761422"><name>WP024</name></rtept>
    <rtept lat="45.741360" lon="-122.761165"><name>WP025</name></rtept>
    <rtept lat="45.736330" lon="-122.761165"><name>WP026</name></rtept>
    <rtept lat="45.734174" lon="-122.761422"><name>WP027</name></rtept>
    <rtept lat="45.723394" lon="-122.762967"><name>WP028</name></rtept>
    <rtept lat="45.714411" lon="-122.766055"><name>WP029</name></rtept>
    <rtept lat="45.706326" lon="-122.768886"><name>WP030</name></rtept>
    <rtept lat="45.696804" lon="-122.772232"><name>WP031</name></rtept>
    <rtept lat="45.691594" lon="-122.774034"><name>WP032</name></rtept>
    <rtept lat="45.683149" lon="-122.774291"><name>WP033</name></rtept>
    <rtept lat="45.681712" lon="-122.774034"><name>WP034</name></rtept>
    <rtept lat="45.678658" lon="-122.773519"><name>WP035</name></rtept>
    <rtept lat="45.677221" lon="-122.773262"><name>WP036</name></rtept>
    <rtept lat="45.675783" lon="-122.773004"><name>WP037</name></rtept>
    <rtept lat="45.674166" lon="-122.772232"><name>WP038</name></rtept>
    <rtept lat="45.670573" lon="-122.770431"><name>WP039</name></rtept>
    <rtept lat="45.669495" lon="-122.769916"><name>WP040</name></rtept>
    <rtept lat="45.668417" lon="-122.769401"><name>WP041</name></rtept>
    <rtept lat="45.666261" lon="-122.768372"><name>WP042</name></rtept>
    <rtept lat="45.665183" lon="-122.767857"><name>WP043</name></rtept>
    <rtept lat="45.663566" lon="-122.767085"><name>WP044</name></rtept>
    <rtept lat="45.662129" lon="-122.766313"><name>WP045</name></rtept>
    <rtept lat="45.661051" lon="-122.765798"><name>WP046</name></rtept>
    <rtept lat="45.659614" lon="-122.764768"><name>WP047</name></rtept>
    <rtept lat="45.659075" lon="-122.764254"><name>WP048</name></rtept>
    <rtept lat="45.657637" lon="-122.762709"><name>WP049</name></rtept>
    <rtept lat="45.648475" lon="-122.769144"><name>WP050</name></rtept>
    <rtept lat="45.644522" lon="-122.772232"><name>WP051</name></rtept>
    <rtept lat="45.639851" lon="-122.779953"><name>WP052</name></rtept>
    <rtept lat="45.632485" lon="-122.788962"><name>WP053</name></rtept>
    <rtept lat="45.628352" lon="-122.790506"><name>WP054</name></rtept>
    <rtept lat="45.624939" lon="-122.790249"><name>WP055</name></rtept>
    <rtept lat="45.624939" lon="-122.789991"><name>WP056</name></rtept>
  </rte>
</gpx>
