<?xml version="1.0" encoding="UTF-8"?>
<gpx version="1.1" creator="open-autoroute" xmlns="http://www.topografix.com/GPX/1/1">
  <rte>
    <name>open-autoroute</name>
    <rtept lat="40.460779" lon="-73.987362"><name>WP001</name></rtept>
    <rtept lat="40.471290" lon="-73.974942"><name>WP002</name></rtept>
    <rtept lat="40.506863" lon="-73.972813"><name>WP003</name></rtept>
    <rtept lat="40.510097" lon="-73.978490"><name>WP004</name></rtept>
    <rtept lat="40.535968" lon="-74.013620"><name>WP005</name></rtept>
    <rtept lat="40.597951" lon="-74.033846"><name>WP006</name></rtept>
    <rtept lat="40.607923" lon="-74.044846"><name>WP007</name></rtept>
    <rtept lat="40.613852" lon="-74.046266"><name>WP008</name></rtept>
    <rtept lat="40.644304" lon="-74.054072"><name>WP009</name></rtept>
    <rtept lat="40.669098" lon="-74.046621"><name>WP010</name></rtept>
    <rtept lat="40.674488" lon="-74.042362"><name>WP011</name></rtept>
    <rtept lat="40.680147" lon="-74.039169"><name>WP012</name></rtept>
    <rtept lat="40.697664" lon="-74.025330"><name>WP013</name></rtept>
    <rtept lat="40.697933" lon="-74.018588"><name>WP014</name></rtept>
    <rtept lat="40.703862" lon="-74.018588"><name>WP015</name></rtept>
  </rte>
</gpx>
