<?xml version="1.0" encoding="UTF-8"?>
<gpx version="1.1" creator="open-autoroute" xmlns="http://www.topografix.com/GPX/1/1">
  <rte>
    <name>open-autoroute</name>
    <rtept lat="47.812916" lon="-122.386379"><name>WP001</name></rtept>
    <rtept lat="47.815072" lon="-122.394404"><name>WP002</name></rtept>
    <rtept lat="47.798363" lon="-122.425699"><name>WP003</name></rtept>
    <rtept lat="47.794051" lon="-122.493906"><name>WP004</name></rtept>
    <rtept lat="47.794321" lon="-122.493906"><name>WP005</name></rtept>
  </rte>
</gpx>
