<?xml version="1.0" encoding="UTF-8"?>
<gpx version="1.1" creator="open-autoroute" xmlns="http://www.topografix.com/GPX/1/1">
  <rte>
    <name>open-autoroute</name>
    <rtept lat="47.605398" lon="-122.368607"><name>WP001</name></rtept>
    <rtept lat="47.631538" lon="-122.420414"><name>WP002</name></rtept>
    <rtept lat="47.649594" lon="-122.447723"><name>WP003</name></rtept>
    <rtept lat="47.660374" lon="-122.448928"><name>WP004</name></rtept>
    <rtept lat="47.668998" lon="-122.438486"><name>WP005</name></rtept>
    <rtept lat="47.686515" lon="-122.438486"><name>WP006</name></rtept>
    <rtept lat="47.757661" lon="-122.436880"><name>WP007</name></rtept>
    <rtept lat="47.774909" lon="-122.437683"><name>WP008</name></rtept>
    <rtept lat="47.933910" lon="-122.485073"><name>WP009</name></rtept>
    <rtept lat="47.937683" lon="-122.493105"><name>WP010</name></rtept>
    <rtept lat="47.942803" lon="-122.503948"><name>WP011</name></rtept>
    <rtept lat="47.946037" lon="-122.510776"><name>WP012</name></rtept>
    <rtept lat="47.949271" lon="-122.517603"><name>WP013</name></rtept>
    <rtept lat="47.949271" lon="-122.521217"><name>WP014</name></rtept>
    <rtept lat="47.967866" lon="-122.561378"><name>WP015</name></rtept>
    <rtept lat="48.001283" lon="-122.593507"><name>WP016</name></rtept>
    <rtept lat="48.022573" lon="-122.625234"><name>WP017</name></rtept>
    <rtept lat="48.022843" lon="-122.625635"><name>WP018</name></rtept>
    <rtept lat="48.023112" lon="-122.626037"><name>WP019</name></rtept>
    <rtept lat="48.027694" lon="-122.650936"><name>WP020</name></rtept>
    <rtept lat="48.103691" lon="-122.680254"><name>WP021</name></rtept>
    <rtept lat="48.107464" lon="-122.685475"><name>WP022</name></rtept>
    <rtept lat="48.108811" lon="-122.692704"><name>WP023</name></rtept>
    <rtept lat="48.104499" lon="-122.730053"><name>WP024</name></rtept>
    <rtept lat="48.100187" lon="-122.755756"><name>WP025</name></rtept>
  </rte>
</gpx>
