<?xml version="1.0" encoding="UTF-8"?>
<gpx version="1.1" creator="open-autoroute" xmlns="http://www.topografix.com/GPX/1/1">
  <rte>
    <name>open-autoroute</name>
    <rtept lat="47.270448" lon="-122.419607"><name>WP001</name></rtept>
    <rtept lat="47.271256" lon="-122.419607"><name>WP002</name></rtept>
    <rtept lat="47.271526" lon="-122.420803"><name>WP003</name></rtept>
    <rtept lat="47.272604" lon="-122.420803"><name>WP004</name></rtept>
    <rtept lat="47.272604" lon="-122.421998"><name>WP005</name></rtept>
    <rtept lat="47.273143" lon="-122.421998"><name>WP006</name></rtept>
    <rtept lat="47.273143" lon="-122.422396"><name>WP007</name></rtept>
    <rtept lat="47.273682" lon="-122.422396"><name>WP008</name></rtept>
    <rtept lat="47.275298" lon="-122.423193"><name>WP009</name></rtept>
    <rtept lat="47.275568" lon="-122.424389"><name>WP010</name></rtept>
    <rtept lat="47.276646" lon="-122.423990"><name>WP011</name></rtept>
    <rtept lat="47.277185" lon="-122.424787"><name>WP012</name></rtept>
    <rtept lat="47.277724" lon="-122.435943"><name>WP013</name></rtept>
    <rtept lat="47.301978" lon="-122.451482"><name>WP014</name></rtept>
    <rtept lat="47.307907" lon="-122.450685"><name>WP015</name></rtept>
    <rtept lat="47.311141" lon="-122.444310"><name>WP016</name></rtept>
    <rtept lat="47.313567" lon="-122.438334"><name>WP017</name></rtept>
    <rtept lat="47.323268" lon="-122.436341"><name>WP018</name></rtept>
    <rtept lat="47.324616" lon="-122.430365"><name>WP019</name></rtept>
    <rtept lat="47.328119" lon="-122.416420"><name>WP020</name></rtept>
    <rtept lat="47.328389" lon="-122.405662"><name>WP021</name></rtept>
    <rtept lat="47.334587" lon="-122.394905"><name>WP022</name></rtept>
    <rtept lat="47.335395" lon="-122.384944"><name>WP023</name></rtept>
    <rtept lat="47.366118" lon="-122.336336"><name>WP024</name></rtept>
    <rtept lat="47.376628" lon="-122.337133"><name>WP025</name></rtept>
    <rtept lat="47.383635" lon="-122.340719"><name>WP026</name></rtept>
    <rtept lat="47.388216" lon="-122.337133"><name>WP027</name></rtept>
    <rtept lat="47.400882" lon="-122.339523"><name>WP028</name></rtept>
    <rtept lat="47.404925" lon="-122.341515"><name>WP029</name></rtept>
    <rtept lat="47.409237" lon="-122.349086"><name>WP030</name></rtept>
    <rtept lat="47.414627" lon="-122.355062"><name>WP031</name></rtept>
    <rtept lat="47.420825" lon="-122.357851"><name>WP032</name></rtept>
    <rtept lat="47.431605" lon="-122.359046"><name>WP033</name></rtept>
    <rtept lat="47.435647" lon="-122.361835"><name>WP034</name></rtept>
    <rtept lat="47.445079" lon="-122.378171"><name>WP035</name></rtept>
    <rtept lat="47.447774" lon="-122.386139"><name>WP036</name></rtept>
    <rtept lat="47.449661" lon="-122.387733"><name>WP037</name></rtept>
    <rtept lat="47.452625" lon="-122.388928"><name>WP038</name></rtept>
    <rtept lat="47.460979" lon="-122.377374"><name>WP039</name></rtept>
    <rtept lat="47.466100" lon="-122.378968"><name>WP040</name></rtept>
    <rtept lat="47.491702" lon="-122.383350"><name>WP041</name></rtept>
    <rtept lat="47.506254" lon="-122.398491"><name>WP042</name></rtept>
    <rtept lat="47.510297" lon="-122.402077"><name>WP043</name></rtept>
    <rtept lat="47.516226" lon="-122.406061"><name>WP044</name></rtept>
    <rtept lat="47.520537" lon="-122.404866"><name>WP045</name></rtept>
    <rtept lat="47.526736" lon="-122.406459"><name>WP046</name></rtept>
    <rtept lat="47.531856" lon="-122.408053"><name>WP047</name></rtept>
    <rtept lat="47.538863" lon="-122.405662"><name>WP048</name></rtept>
    <rtept lat="47.545331" lon="-122.406858"><name>WP049</name></rtept>
    <rtept lat="47.555033" lon="-122.409647"><name>WP050</name></rtept>
    <rtept lat="47.561770" lon="-122.416818"><name>WP051</name></rtept>
    <rtept lat="47.573628" lon="-122.427576"><name>WP052</name></rtept>
    <rtept lat="47.579017" lon="-122.425185"><name>WP053</name></rtept>
    <rtept lat="47.605428" lon="-122.384546"><name>WP054</name></rtept>
    <rtept lat="47.605428" lon="-122.368609"><name>WP055</name></rtept>
  </rte>
</gpx>
