<?xml version="1.0" encoding="UTF-8"?>
<gpx version="1.1" creator="open-autoroute" xmlns="http://www.topografix.com/GPX/1/1">
  <rte>
    <name>sf_sausalito_half_moon_bay</name>
    <desc>open-autoroute: 28.2 nm, 12.0 m vessel, 1.5 m draft plus 1.0 m clearance</desc>
    <rtept lat="37.862897" lon="-122.483531"><name>START</name></rtept>
    <rtept lat="37.862627" lon="-122.482169"><name>WP002</name></rtept>
    <rtept lat="37.858585" lon="-122.475359"><name>WP003</name></rtept>
    <rtept lat="37.852926" lon="-122.468208"><name>WP004</name></rtept>
    <rtept lat="37.848075" lon="-122.468208"><name>WP005</name></rtept>
    <rtept lat="37.834600" lon="-122.465143"><name>WP006</name></rtept>
    <rtept lat="37.830288" lon="-122.468889"><name>WP007</name></rtept>
    <rtept lat="37.817083" lon="-122.472635"><name>WP008</name></rtept>
    <rtept lat="37.820586" lon="-122.478764"><name>WP009</name></rtept>
    <rtept lat="37.820856" lon="-122.479104"><name>WP010</name></rtept>
    <rtept lat="37.817622" lon="-122.483531"><name>WP011</name></rtept>
    <rtept lat="37.810615" lon="-122.483871"><name>WP012</name></rtept>
    <rtept lat="37.798218" lon="-122.484212"><name>WP013</name></rtept>
    <rtept lat="37.793368" lon="-122.493065"><name>WP014</name></rtept>
    <rtept lat="37.792829" lon="-122.504302"><name>WP015</name></rtept>
    <rtept lat="37.790673" lon="-122.508047"><name>WP016</name></rtept>
    <rtept lat="37.790403" lon="-122.514517"><name>WP017</name></rtept>
    <rtept lat="37.784474" lon="-122.520646"><name>WP018</name></rtept>
    <rtept lat="37.780432" lon="-122.523711"><name>WP019</name></rtept>
    <rtept lat="37.732462" lon="-122.533245"><name>WP020</name></rtept>
    <rtept lat="37.509322" lon="-122.533585"><name>WP021</name></rtept>
    <rtept lat="37.487223" lon="-122.504302"><name>WP022</name></rtept>
    <rtept lat="37.478330" lon="-122.484552"><name>WP023</name></rtept>
    <rtept lat="37.481294" lon="-122.479445"><name>WP024</name></rtept>
    <rtept lat="37.493152" lon="-122.480807"><name>WP025</name></rtept>
    <rtept lat="37.495038" lon="-122.485914"><name>WP026</name></rtept>
    <rtept lat="37.495577" lon="-122.486255"><name>WP027</name></rtept>
    <rtept lat="37.499081" lon="-122.484893"><name>END</name></rtept>
  </rte>
</gpx>
